{"type": "FeatureCollection", "name": "Sanitary Structure", "features": [{"type": "Feature", "id": 1, "geometry": {"type": "Point", "coordinates": [-122.346707994823, 37.9090668439562]}, "properties": {"OBJECTID": 1, "AncillaryR": 0, "Enabled": 1, "FacilityNo": "410017", "SewerType": 6, "SewerStatu": "ACTIVE", "Rotation": 0, "InstallYea": 0, "Model": "Y", "X_Coord": 6028930.1597, "Y_Coord": 2158728.69838, "Unique_ID": "0010010010", "StructureN": "Sunset Point Pump Station", "SewerStruc": 4, "Uniq_ID": 0, "NeedSurvey": " ", "HighAccura": " ", "Xtra": " ", "New": "Y", "Update_200": "Y", "Name_Abv": "Sunset_Pt", "Legacy_No": " ", "As_Built_d": "7-D-1581.PDF", "node_id": "D11SS10", "ASSET_ID": "D11SS10", "ASSET_STATUS": "ACTIVE", "ASSET_CAT": "STRUCT", "ASSET_ALIGNMENT": null, "SYSTEM_TYPE": "SAN", "SYSTEM_OP": null, "INSTALL_YR": null, "ASSET_TYPE": 4, "GlobalID": "765cd010-0e6b-4c60-b513-cc0dd5e36c61"}}, {"type": "Feature", "id": 2, "geometry": {"type": "Point", "coordinates": [-122.343739551541, 37.9133229725157]}, "properties": {"OBJECTID": 2, "AncillaryR": 0, "Enabled": 1, "FacilityNo": "410018", "SewerType": 6, "SewerStatu": "ACTIVE", "Rotation": 0, "InstallYea": 0, "Model": "Y", "X_Coord": 6029816.91906, "Y_Coord": 2160261.30146, "Unique_ID": "0010010010", "StructureN": "Marina Bay Parkway Pump Station", "SewerStruc": 4, "Uniq_ID": 5001, "NeedSurvey": "Y", "HighAccura": "N", "Xtra": " ", "New": "Y", "Update_200": "Y", "Name_Abv": "MarinaPky", "Legacy_No": " ", "As_Built_d": "10-E-1934.PDF", "node_id": "D11SS7", "ASSET_ID": "D11SS7", "ASSET_STATUS": "ACTIVE", "ASSET_CAT": "STRUCT", "ASSET_ALIGNMENT": null, "SYSTEM_TYPE": "SAN", "SYSTEM_OP": null, "INSTALL_YR": null, "ASSET_TYPE": 4, "GlobalID": "06eaa26f-7e0c-4a09-80c3-c498c137f37b"}}, {"type": "Feature", "id": 3, "geometry": {"type": "Point", "coordinates": [-122.328889522564, 37.9123783441062]}, "properties": {"OBJECTID": 3, "AncillaryR": 0, "Enabled": 1, "FacilityNo": "410019", "SewerType": 6, "SewerStatu": "ACTIVE", "Rotation": 0, "InstallYea": 0, "Model": "Y", "X_Coord": 6034093.35669, "Y_Coord": 2159833.34447, "Unique_ID": "0010010010", "StructureN": "ICI Pump Station", "SewerStruc": 4, "Uniq_ID": 0, "NeedSurvey": " ", "HighAccura": " ", "Xtra": "Y", "New": "Y", "Update_200": "Y", "Name_Abv": "ICIPUMP", "Legacy_No": " ", "As_Built_d": "10-D-1106.PDF", "node_id": "D12SS6", "ASSET_ID": "D12SS6", "ASSET_STATUS": "ACTIVE", "ASSET_CAT": "STRUCT", "ASSET_ALIGNMENT": null, "SYSTEM_TYPE": "SAN", "SYSTEM_OP": null, "INSTALL_YR": null, "ASSET_TYPE": 4, "GlobalID": "3136d813-2e36-471c-baff-3c4860738eac"}}, {"type": "Feature", "id": 4, "geometry": {"type": "Point", "coordinates": [-122.38717085427, 37.9101094216676]}, "properties": {"OBJECTID": 4, "AncillaryR": 0, "Enabled": 1, "FacilityNo": "410012", "SewerType": 6, "SewerStatu": "ACTIVE", "Rotation": 0, "InstallYea": 0, "Model": "Y", "X_Coord": 6017266.61216, "Y_Coord": 2159341.11624, "Unique_ID": "0010010010", "StructureN": "Ferry Point Pump Station", "SewerStruc": 4, "Uniq_ID": 0, "NeedSurvey": " ", "HighAccura": " ", "Xtra": "Y", "New": "Y", "Update_200": "Y", "Name_Abv": "FerryPt", "Legacy_No": "090382", "As_Built_d": "10-E-1542.PDF", "node_id": "D7SS3", "ASSET_ID": "D7SS3", "ASSET_STATUS": "ACTIVE", "ASSET_CAT": "STRUCT", "ASSET_ALIGNMENT": null, "SYSTEM_TYPE": "SAN", "SYSTEM_OP": null, "INSTALL_YR": null, "ASSET_TYPE": 4, "GlobalID": "c4899a56-4321-4708-b00d-523503e73607"}}, {"type": "Feature", "id": 5, "geometry": {"type": "Point", "coordinates": [-122.379043651184, 37.9113087693792]}, "properties": {"OBJECTID": 5, "AncillaryR": 0, "Enabled": 1, "FacilityNo": "410013", "SewerType": 6, "SewerStatu": "ACTIVE", "Rotation": 0, "InstallYea": 0, "Model": "Y", "X_Coord": 6019619.56884, "Y_Coord": 2159730.57231, "Unique_ID": "0010010010", "StructureN": "Brickyard Pump Station", "SewerStruc": 4, "Uniq_ID": 0, "NeedSurvey": " ", "HighAccura": " ", "Xtra": "Y", "New": "Y", "Update_200": "Y", "Name_Abv": "Brckyrd", "Legacy_No": " ", "As_Built_d": "10-E-1898.PDF", "node_id": "D8SS8", "ASSET_ID": "D8SS8", "ASSET_STATUS": "ACTIVE", "ASSET_CAT": "STRUCT", "ASSET_ALIGNMENT": null, "SYSTEM_TYPE": "SAN", "SYSTEM_OP": null, "INSTALL_YR": null, "ASSET_TYPE": 4, "GlobalID": "5db371c2-e8a1-4f45-ae5d-def4fd68f869"}}, {"type": "Feature", "id": 6, "geometry": {"type": "Point", "coordinates": [-122.375719002352, 37.9096071490057]}, "properties": {"OBJECTID": 6, "AncillaryR": 0, "Enabled": 1, "FacilityNo": "410014", "SewerType": 6, "SewerStatu": "ACTIVE", "Rotation": 0, "InstallYea": 0, "Model": "Y", "X_Coord": 6020566.08935, "Y_Coord": 2159091.84469, "Unique_ID": "0010010010", "StructureN": "Brickyard Booster Pump Station", "SewerStruc": 4, "Uniq_ID": 0, "NeedSurvey": " ", "HighAccura": " ", "Xtra": " ", "New": "Y", "Update_200": "Y", "Name_Abv": "Brckyrdbst", "Legacy_No": " ", "As_Built_d": "10-E-2260.PDF", "node_id": "D8SS9", "ASSET_ID": "D8SS9", "ASSET_STATUS": "ACTIVE", "ASSET_CAT": "STRUCT", "ASSET_ALIGNMENT": null, "SYSTEM_TYPE": "SAN", "SYSTEM_OP": null, "INSTALL_YR": null, "ASSET_TYPE": 4, "GlobalID": "287ebe66-9258-4e76-8b0b-2c2bcfc4eced"}}, {"type": "Feature", "id": 7, "geometry": {"type": "Point", "coordinates": [-122.364385453553, 37.9081614644414]}, "properties": {"OBJECTID": 7, "AncillaryR": 0, "Enabled": 1, "FacilityNo": "410015", "SewerType": 6, "SewerStatu": "ACTIVE", "Rotation": 0, "InstallYea": 0, "Model": "Y", "X_Coord": 6023824.65223, "Y_Coord": 2158500.19874, "Unique_ID": "0010010010", "StructureN": "Port Pump Station (Old Kaiser Ship Yard)", "SewerStruc": 4, "Uniq_ID": 0, "NeedSurvey": " ", "HighAccura": " ", "Xtra": " ", "New": "Y", "Update_200": "Y", "Name_Abv": "Port Pmp", "Legacy_No": " ", "As_Built_d": " ", "node_id": "D9SS4", "ASSET_ID": "D9SS4", "ASSET_STATUS": "ACTIVE", "ASSET_CAT": "STRUCT", "ASSET_ALIGNMENT": null, "SYSTEM_TYPE": "SAN", "SYSTEM_OP": null, "INSTALL_YR": null, "ASSET_TYPE": 4, "GlobalID": "afe214e2-b18e-4032-b79d-0e44cde6b605"}}, {"type": "Feature", "id": 8, "geometry": {"type": "Point", "coordinates": [-122.350939522295, 37.9154005103486]}, "properties": {"OBJECTID": 8, "AncillaryR": 0, "Enabled": 1, "FacilityNo": "410016", "SewerType": 6, "SewerStatu": "ACTIVE", "Rotation": 0, "InstallYea": 0, "Model": "Y", "X_Coord": 6027755.21429, "Y_Coord": 2161058.64796, "Unique_ID": "0010010010", "StructureN": "Marina Bay Pump Station", "SewerStruc": 4, "Uniq_ID": 2468, "NeedSurvey": " ", "HighAccura": " ", "Xtra": " ", "New": "Y", "Update_200": "Y", "Name_Abv": "Marina Bay", "Legacy_No": "110287", "As_Built_d": "10-E-1866.PDF", "node_id": "E10SS2", "ASSET_ID": "E10SS2", "ASSET_STATUS": "ACTIVE", "ASSET_CAT": "STRUCT", "ASSET_ALIGNMENT": null, "SYSTEM_TYPE": "SAN", "SYSTEM_OP": null, "INSTALL_YR": null, "ASSET_TYPE": 4, "GlobalID": "62ae3f2c-bde8-4f48-bdfd-0f1cbede819a"}}, {"type": "Feature", "id": 9, "geometry": {"type": "Point", "coordinates": [-122.386301521055, 37.920483109154]}, "properties": {"OBJECTID": 9, "AncillaryR": 0, "Enabled": 1, "FacilityNo": "410011", "SewerType": 6, "SewerStatu": "ACTIVE", "Rotation": 0, "InstallYea": 0, "Model": "Y", "X_Coord": 6017593.49165, "Y_Coord": 2163112.67791, "Unique_ID": "0010010010", "StructureN": "Keller Beach Pump Station", "SewerStruc": 4, "Uniq_ID": 5013, "NeedSurvey": "Y", "HighAccura": "N", "Xtra": " ", "New": "Y", "Update_200": "Y", "Name_Abv": "KellerBch", "Legacy_No": " ", "As_Built_d": "10-E-2158.PDF", "node_id": "F7SS1", "ASSET_ID": "F7SS1", "ASSET_STATUS": "ACTIVE", "ASSET_CAT": "STRUCT", "ASSET_ALIGNMENT": null, "SYSTEM_TYPE": "SAN", "SYSTEM_OP": null, "INSTALL_YR": null, "ASSET_TYPE": 4, "GlobalID": "7ef71cd5-2fe5-425a-a038-aa8a19a28004"}}, {"type": "Feature", "id": 10, "geometry": {"type": "Point", "coordinates": [-122.378545916035, 37.9204070072461]}, "properties": {"OBJECTID": 10, "AncillaryR": 2, "Enabled": 1, "FacilityNo": "410001", "SewerType": 9, "SewerStatu": "ACTIVE", "Rotation": 0, "InstallYea": 0, "Model": "Y", "X_Coord": 6019829.62881, "Y_Coord": 2163039.97634, "Unique_ID": "0010010010", "StructureN": "Wastewater Treament Plant", "SewerStruc": 2, "Uniq_ID": 0, "NeedSurvey": " ", "HighAccura": " ", "Xtra": " ", "New": "Y", "Update_200": "Y", "Name_Abv": "POTW", "Legacy_No": " ", "As_Built_d": "10-E-2104.PDF", "node_id": "F8SS5", "ASSET_ID": "F8SS5", "ASSET_STATUS": "ACTIVE", "ASSET_CAT": "STRUCT", "ASSET_ALIGNMENT": null, "SYSTEM_TYPE": "SAN", "SYSTEM_OP": null, "INSTALL_YR": null, "ASSET_TYPE": 2, "GlobalID": "bf61d646-9a59-42e3-abc8-07a209dd20b2"}}, {"type": "Feature", "id": 11, "geometry": {"type": "Point", "coordinates": [-122.360030080488, 37.9212988322249]}, "properties": {"OBJECTID": 11, "AncillaryR": 0, "Enabled": 1, "FacilityNo": "410026", "SewerType": 3, "SewerStatu": "ACTIVE", "Rotation": 0, "InstallYea": 0, "Model": " ", "X_Coord": 0, "Y_Coord": 0, "Unique_ID": "0010010010", "StructureN": "Harbour/Wright Overflow Weir", "SewerStruc": 5, "Uniq_ID": 0, "NeedSurvey": " ", "HighAccura": " ", "Xtra": " ", "New": " ", "Update_200": " ", "Name_Abv": "Harbour-Wright", "Legacy_No": " ", "As_Built_d": " ", "node_id": "F9SS1", "ASSET_ID": "F9SS1", "ASSET_STATUS": "ACTIVE", "ASSET_CAT": "STRUCT", "ASSET_ALIGNMENT": null, "SYSTEM_TYPE": "SAN", "SYSTEM_OP": null, "INSTALL_YR": null, "ASSET_TYPE": 5, "GlobalID": "980e7a97-7ffa-4039-81fd-9cf3979d9799"}}, {"type": "Feature", "id": 12, "geometry": {"type": "Point", "coordinates": [-122.290949434621, 37.9289417869505]}, "properties": {"OBJECTID": 12, "AncillaryR": 0, "Enabled": 1, "FacilityNo": "410021", "SewerType": 6, "SewerStatu": "ACTIVE", "Rotation": 0, "InstallYea": 0, "Model": " ", "X_Coord": 6045151.94141, "Y_Coord": 2165651.85097, "Unique_ID": "0010010010", "StructureN": "Canyon Estates #1 Pump Station", "SewerStruc": 4, "Uniq_ID": 0, "NeedSurvey": " ", "HighAccura": " ", "Xtra": " ", "New": " ", "Update_200": " ", "Name_Abv": "Canyon1", "Legacy_No": " ", "As_Built_d": "10-E-1872.PDF", "node_id": "G16SS13", "ASSET_ID": "G16SS13", "ASSET_STATUS": "ACTIVE", "ASSET_CAT": "STRUCT", "ASSET_ALIGNMENT": null, "SYSTEM_TYPE": "SAN", "SYSTEM_OP": null, "INSTALL_YR": null, "ASSET_TYPE": 4, "GlobalID": "d22d6e59-1c58-4d20-b005-1722a9710d1e"}}, {"type": "Feature", "id": 13, "geometry": {"type": "Point", "coordinates": [-122.291140726172, 37.9297392690732]}, "properties": {"OBJECTID": 13, "AncillaryR": 0, "Enabled": 1, "FacilityNo": "410022", "SewerType": 6, "SewerStatu": "ACTIVE", "Rotation": 0, "InstallYea": 0, "Model": " ", "X_Coord": 6045102.33616, "Y_Coord": 2165943.24278, "Unique_ID": "0010010010", "StructureN": "Canyon Estates #2 Pump Station", "SewerStruc": 4, "Uniq_ID": 0, "NeedSurvey": " ", "HighAccura": " ", "Xtra": " ", "New": "Y", "Update_200": "Y", "Name_Abv": "Canyon2", "Legacy_No": "010369", "As_Built_d": "10-E-2180.PDF", "node_id": "G16SS14", "ASSET_ID": "G16SS14", "ASSET_STATUS": "ACTIVE", "ASSET_CAT": "STRUCT", "ASSET_ALIGNMENT": null, "SYSTEM_TYPE": "SAN", "SYSTEM_OP": null, "INSTALL_YR": null, "ASSET_TYPE": 4, "GlobalID": "9a566395-4c45-45a0-9822-8e03b29bc4c9"}}, {"type": "Feature", "id": 14, "geometry": {"type": "Point", "coordinates": [-122.297934467789, 37.9335888603562]}, "properties": {"OBJECTID": 14, "AncillaryR": 0, "Enabled": 1, "FacilityNo": "410024", "SewerType": 6, "SewerStatu": "ACTIVE", "Rotation": 0, "InstallYea": 1981, "Model": "Y", "X_Coord": 6043170.17865, "Y_Coord": 2167382.31702, "Unique_ID": "0010010010", "StructureN": "Mira Vista II", "SewerStruc": 4, "Uniq_ID": 0, "NeedSurvey": " ", "HighAccura": " ", "Xtra": " ", "New": " ", "Update_200": " ", "Name_Abv": "Mira Vista II", "Legacy_No": " ", "As_Built_d": " ", "node_id": "H15SS15", "ASSET_ID": "H15SS15", "ASSET_STATUS": "ACTIVE", "ASSET_CAT": "STRUCT", "ASSET_ALIGNMENT": null, "SYSTEM_TYPE": "SAN", "SYSTEM_OP": null, "INSTALL_YR": null, "ASSET_TYPE": 4, "GlobalID": "7fdb3b22-6858-4159-9078-efe3afe95851"}}, {"type": "Feature", "id": 15, "geometry": {"type": "Point", "coordinates": [-122.299719504363, 37.9351357801484]}, "properties": {"OBJECTID": 15, "AncillaryR": 0, "Enabled": 1, "FacilityNo": "410025", "SewerType": 6, "SewerStatu": "ACTIVE", "Rotation": 0, "InstallYea": 1981, "Model": "Y", "X_Coord": 6042666.29315, "Y_Coord": 2167955.39209, "Unique_ID": "0010010010", "StructureN": "Mira Vista I", "SewerStruc": 4, "Uniq_ID": 0, "NeedSurvey": " ", "HighAccura": " ", "Xtra": " ", "New": " ", "Update_200": " ", "Name_Abv": "Mira Vista I", "Legacy_No": " ", "As_Built_d": " ", "node_id": "H15SS16", "ASSET_ID": "H15SS16", "ASSET_STATUS": "ACTIVE", "ASSET_CAT": "STRUCT", "ASSET_ALIGNMENT": null, "SYSTEM_TYPE": "SAN", "SYSTEM_OP": null, "INSTALL_YR": null, "ASSET_TYPE": 4, "GlobalID": "a9d0345f-5f6c-4f36-a3db-a199ecb317f0"}}, {"type": "Feature", "id": 16, "geometry": {"type": "Point", "coordinates": [-122.294549061544, 37.9313108426044]}, "properties": {"OBJECTID": 16, "AncillaryR": 0, "Enabled": 1, "FacilityNo": "410023", "SewerType": 6, "SewerStatu": "ACTIVE", "Rotation": 0, "InstallYea": 0, "Model": "Y", "X_Coord": 6044130.45929, "Y_Coord": 2166534.22978, "Unique_ID": "0010010010", "StructureN": "Canyon Estates #3 Pump Station", "SewerStruc": 4, "Uniq_ID": 0, "NeedSurvey": " ", "HighAccura": " ", "Xtra": " ", "New": "Y", "Update_200": "Y", "Name_Abv": "Canyon3", "Legacy_No": " ", "As_Built_d": "10-E-2180.PDF", "node_id": "H16SS11", "ASSET_ID": "H16SS11", "ASSET_STATUS": "ACTIVE", "ASSET_CAT": "STRUCT", "ASSET_ALIGNMENT": null, "SYSTEM_TYPE": "SAN", "SYSTEM_OP": null, "INSTALL_YR": null, "ASSET_TYPE": 4, "GlobalID": "e1b1dae1-d612-4a8c-98d7-2e0048add82d"}}, {"type": "Feature", "id": 17, "geometry": {"type": "Point", "coordinates": [-122.369353779326, 37.9369547708665]}, "properties": {"OBJECTID": 17, "AncillaryR": 0, "Enabled": 1, "FacilityNo": "410020", "SewerType": 6, "SewerStatu": "ACTIVE", "Rotation": 0, "InstallYea": 0, "Model": " ", "X_Coord": 6022600.97281, "Y_Coord": 2169011.26147, "Unique_ID": "0010010010", "StructureN": "Nevin & A Pump Station", "SewerStruc": 4, "Uniq_ID": 0, "NeedSurvey": " ", "HighAccura": " ", "Xtra": " ", "New": "Y", "Update_200": "Y", "Name_Abv": "Nevin_A", "Legacy_No": " ", "As_Built_d": "10-E-2158.PDF", "node_id": "I9SS12", "ASSET_ID": "I9SS12", "ASSET_STATUS": "ACTIVE", "ASSET_CAT": "STRUCT", "ASSET_ALIGNMENT": null, "SYSTEM_TYPE": "SAN", "SYSTEM_OP": null, "INSTALL_YR": null, "ASSET_TYPE": 4, "GlobalID": "1325f783-6e74-4f43-8129-9268ea884a1e"}}]}